[{"OBJECT_NAME":"STARLINK-11198 [DTC]","OBJECT_ID":"2024-118B","EPOCH":"2025-10-29T07:12:56.501280","MEAN_MOTION":15.6970731,"ECCENTRICITY":0.0001099,"INCLINATION":53.1596,"RA_OF_ASC_NODE":149.2244,"ARG_OF_PERICENTER":95.2163,"MEAN_ANOMALY":264.898,"EPHEMERIS_TYPE":0,"CLASSIFICATION_TYPE":"U","NORAD_CAT_ID":60114,"ELEMENT_SET_NO":999,"REV_AT_EPOCH":7735,"BSTAR":-1.1953e-5,"MEAN_MOTION_DOT":-2.036e-5,"MEAN_MOTION_DDOT":0},{"OBJECT_NAME":"STARLINK-11112 [DTC]","OBJECT_ID":"2024-118C","EPOCH":"2025-10-29T13:12:37.014624","MEAN_MOTION":15.69704233,"ECCENTRICITY":0.000107,"INCLINATION":53.1592,"RA_OF_ASC_NODE":147.9354,"ARG_OF_PERICENTER":101.8098,"MEAN_ANOMALY":258.304,"EPHEMERIS_TYPE":0,"CLASSIFICATION_TYPE":"U","NORAD_CAT_ID":60115,"ELEMENT_SET_NO":999,"REV_AT_EPOCH":7739,"BSTAR":2.5749e-6,"MEAN_MOTION_DOT":-2.77e-6,"MEAN_MOTION_DDOT":0},{"OBJECT_NAME":"STARLINK-11210 [DTC]","OBJECT_ID":"2024-118D","EPOCH":"2025-10-29T13:05:32.400096","MEAN_MOTION":15.69713817,"ECCENTRICITY":9.95e-5,"INCLINATION":53.1562,"RA_OF_ASC_NODE":147.9036,"ARG_OF_PERICENTER":63.2919,"MEAN_ANOMALY":296.8201,"EPHEMERIS_TYPE":0,"CLASSIFICATION_TYPE":"U","NORAD_CAT_ID":60116,"ELEMENT_SET_NO":999,"REV_AT_EPOCH":7739,"BSTAR":3.6413e-5,"MEAN_MOTION_DOT":3.826e-5,"MEAN_MOTION_DDOT":0},{"OBJECT_NAME":"STARLINK-11203 [DTC]","OBJECT_ID":"2024-118E","EPOCH":"2025-10-28T14:03:13.104576","MEAN_MOTION":15.69715132,"ECCENTRICITY":7.919e-5,"INCLINATION":53.1572,"RA_OF_ASC_NODE":152.5778,"ARG_OF_PERICENTER":84.3175,"MEAN_ANOMALY":275.7933,"EPHEMERIS_TYPE":0,"CLASSIFICATION_TYPE":"U","NORAD_CAT_ID":60117,"ELEMENT_SET_NO":999,"REV_AT_EPOCH":7724,"BSTAR":4.993473e-6,"MEAN_MOTION_DOT":1.7e-7,"MEAN_MOTION_DDOT":0},{"OBJECT_NAME":"STARLINK-11177 [DTC]","OBJECT_ID":"2024-118F","EPOCH":"2025-10-29T06:44:40.896960","MEAN_MOTION":15.69709582,"ECCENTRICITY":7.04e-5,"INCLINATION":53.1575,"RA_OF_ASC_NODE":149.0924,"ARG_OF_PERICENTER":142.6721,"MEAN_ANOMALY":217.4345,"EPHEMERIS_TYPE":0,"CLASSIFICATION_TYPE":"U","NORAD_CAT_ID":60118,"ELEMENT_SET_NO":999,"REV_AT_EPOCH":7735,"BSTAR":5.494e-6,"MEAN_MOTION_DOT":7.8e-7,"MEAN_MOTION_DDOT":0},{"OBJECT_NAME":"STARLINK-11127 [DTC]","OBJECT_ID":"2024-118G","EPOCH":"2025-10-29T06:37:35.961888","MEAN_MOTION":15.69743708,"ECCENTRICITY":8.74e-5,"INCLINATION":53.1591,"RA_OF_ASC_NODE":149.0596,"ARG_OF_PERICENTER":35.9453,"MEAN_ANOMALY":324.1623,"EPHEMERIS_TYPE":0,"CLASSIFICATION_TYPE":"U","NORAD_CAT_ID":60119,"ELEMENT_SET_NO":999,"REV_AT_EPOCH":7735,"BSTAR":-5.6455e-5,"MEAN_MOTION_DOT":-7.431e-5,"MEAN_MOTION_DDOT":0},{"OBJECT_NAME":"STARLINK-11164 [DTC]","OBJECT_ID":"2024-118H","EPOCH":"2025-10-28T13:42:02.996064","MEAN_MOTION":15.69684805,"ECCENTRICITY":0.00010745,"INCLINATION":53.1579,"RA_OF_ASC_NODE":152.4799,"ARG_OF_PERICENTER":91.8596,"MEAN_ANOMALY":268.2545,"EPHEMERIS_TYPE":0,"CLASSIFICATION_TYPE":"U","NORAD_CAT_ID":60120,"ELEMENT_SET_NO":999,"REV_AT_EPOCH":7724,"BSTAR":-1.2464686e-5,"MEAN_MOTION_DOT":-2.096e-5,"MEAN_MOTION_DDOT":0},{"OBJECT_NAME":"STARLINK-11119 [DTC]","OBJECT_ID":"2024-118J","EPOCH":"2025-10-28T14:52:30.908352","MEAN_MOTION":15.69711758,"ECCENTRICITY":9.885e-5,"INCLINATION":53.159,"RA_OF_ASC_NODE":152.0683,"ARG_OF_PERICENTER":89.293,"MEAN_ANOMALY":270.8201,"EPHEMERIS_TYPE":0,"CLASSIFICATION_TYPE":"U","NORAD_CAT_ID":60121,"ELEMENT_SET_NO":999,"REV_AT_EPOCH":7725,"BSTAR":2.3195245e-5,"MEAN_MOTION_DOT":2.223e-5,"MEAN_MOTION_DDOT":0},{"OBJECT_NAME":"STARLINK-11157 [DTC]","OBJECT_ID":"2024-118K","EPOCH":"2025-10-28T14:59:34.915488","MEAN_MOTION":15.69713516,"ECCENTRICITY":0.00010247,"INCLINATION":53.1585,"RA_OF_ASC_NODE":152.1002,"ARG_OF_PERICENTER":99.5435,"MEAN_ANOMALY":260.5699,"EPHEMERIS_TYPE":0,"CLASSIFICATION_TYPE":"U","NORAD_CAT_ID":60122,"ELEMENT_SET_NO":999,"REV_AT_EPOCH":7725,"BSTAR":9.255259e-6,"MEAN_MOTION_DOT":5.33e-6,"MEAN_MOTION_DDOT":0},{"OBJECT_NAME":"STARLINK-11162 [DTC]","OBJECT_ID":"2024-118L","EPOCH":"2025-10-28T14:45:27.388512","MEAN_MOTION":15.69704584,"ECCENTRICITY":0.00010122,"INCLINATION":53.1592,"RA_OF_ASC_NODE":152.0328,"ARG_OF_PERICENTER":80.3287,"MEAN_ANOMALY":279.7845,"EPHEMERIS_TYPE":0,"CLASSIFICATION_TYPE":"U","NORAD_CAT_ID":60123,"ELEMENT_SET_NO":999,"REV_AT_EPOCH":7725,"BSTAR":2.1201856e-5,"MEAN_MOTION_DOT":1.98e-5,"MEAN_MOTION_DDOT":0},{"OBJECT_NAME":"STARLINK-11161 [DTC]","OBJECT_ID":"2024-118M","EPOCH":"2025-10-29T07:27:04.184640","MEAN_MOTION":15.69707811,"ECCENTRICITY":0.0001271,"INCLINATION":53.159,"RA_OF_ASC_NODE":149.2851,"ARG_OF_PERICENTER":105.1807,"MEAN_ANOMALY":254.9351,"EPHEMERIS_TYPE":0,"CLASSIFICATION_TYPE":"U","NORAD_CAT_ID":60124,"ELEMENT_SET_NO":999,"REV_AT_EPOCH":7735,"BSTAR":-6.2172e-6,"MEAN_MOTION_DOT":-1.342e-5,"MEAN_MOTION_DDOT":0},{"OBJECT_NAME":"STARLINK-11160 [DTC]","OBJECT_ID":"2024-118N","EPOCH":"2025-10-28T07:28:14.078784","MEAN_MOTION":15.69707199,"ECCENTRICITY":7.57e-5,"INCLINATION":53.1571,"RA_OF_ASC_NODE":153.701,"ARG_OF_PERICENTER":85.644,"MEAN_ANOMALY":274.4664,"EPHEMERIS_TYPE":0,"CLASSIFICATION_TYPE":"U","NORAD_CAT_ID":60125,"ELEMENT_SET_NO":999,"REV_AT_EPOCH":7720,"BSTAR":7.389111e-6,"MEAN_MOTION_DOT":3.07e-6,"MEAN_MOTION_DDOT":0},{"OBJECT_NAME":"STARLINK-31846","OBJECT_ID":"2024-118P","EPOCH":"2025-10-29T04:34:09.689952","MEAN_MOTION":15.30182785,"ECCENTRICITY":0.0001293,"INCLINATION":53.1605,"RA_OF_ASC_NODE":277.4931,"ARG_OF_PERICENTER":91.9591,"MEAN_ANOMALY":268.1558,"EPHEMERIS_TYPE":0,"CLASSIFICATION_TYPE":"U","NORAD_CAT_ID":60126,"ELEMENT_SET_NO":999,"REV_AT_EPOCH":7556,"BSTAR":-1.7026e-5,"MEAN_MOTION_DOT":-8.63e-6,"MEAN_MOTION_DDOT":0},{"OBJECT_NAME":"STARLINK-31840","OBJECT_ID":"2024-118Q","EPOCH":"2025-10-28T05:12:28.357632","MEAN_MOTION":15.3018938,"ECCENTRICITY":0.0001468,"INCLINATION":53.1605,"RA_OF_ASC_NODE":282.0841,"ARG_OF_PERICENTER":93.3498,"MEAN_ANOMALY":266.7671,"EPHEMERIS_TYPE":0,"CLASSIFICATION_TYPE":"U","NORAD_CAT_ID":60127,"ELEMENT_SET_NO":999,"REV_AT_EPOCH":7541,"BSTAR":2.5126872e-5,"MEAN_MOTION_DOT":3.85e-6,"MEAN_MOTION_DDOT":0},{"OBJECT_NAME":"STARLINK-31813","OBJECT_ID":"2024-118R","EPOCH":"2025-10-29T07:46:49.467360","MEAN_MOTION":15.30184524,"ECCENTRICITY":0.000135,"INCLINATION":53.1603,"RA_OF_ASC_NODE":276.9076,"ARG_OF_PERICENTER":83.5699,"MEAN_ANOMALY":276.5455,"EPHEMERIS_TYPE":0,"CLASSIFICATION_TYPE":"U","NORAD_CAT_ID":60128,"ELEMENT_SET_NO":999,"REV_AT_EPOCH":7558,"BSTAR":-3.4734e-5,"MEAN_MOTION_DOT":-1.387e-5,"MEAN_MOTION_DDOT":0},{"OBJECT_NAME":"STARLINK-31845","OBJECT_ID":"2024-118S","EPOCH":"2025-10-28T05:04:07.228992","MEAN_MOTION":15.30182011,"ECCENTRICITY":0.00013457,"INCLINATION":53.161,"RA_OF_ASC_NODE":279.9108,"ARG_OF_PERICENTER":82.3943,"MEAN_ANOMALY":277.721,"EPHEMERIS_TYPE":0,"CLASSIFICATION_TYPE":"U","NORAD_CAT_ID":60129,"ELEMENT_SET_NO":999,"REV_AT_EPOCH":7544,"BSTAR":9.67397e-7,"MEAN_MOTION_DOT":-3.31e-6,"MEAN_MOTION_DDOT":0}]
