STARLINK-11198 [DTC]    
1 60114U 24118B   25302.30065395 -.00002036  00000+0 -11953-4 0  9996
2 60114  53.1596 149.2244 0001099  95.2163 264.8980 15.69707310 77352
STARLINK-11112 [DTC]    
1 60115U 24118C   25302.55042841 -.00000277  00000+0  25749-5 0  9998
2 60115  53.1592 147.9354 0001070 101.8098 258.3040 15.69704233 77396
STARLINK-11210 [DTC]    
1 60116U 24118D   25302.54551389  .00003826  00000+0  36413-4 0  9991
2 60116  53.1562 147.9036 0000995  63.2919 296.8201 15.69713817 77393
STARLINK-11203 [DTC]    
1 60117U 24118E   25301.58556834  .00000017  00000+0  49935-5 0  9998
2 60117  53.1572 152.5778 0000791  84.3175 275.7933 15.69715132 77246
STARLINK-11177 [DTC]    
1 60118U 24118F   25302.28102890  .00000078  00000+0  54940-5 0  9995
2 60118  53.1575 149.0924 0000704 142.6721 217.4345 15.69709582 77357
STARLINK-11127 [DTC]    
1 60119U 24118G   25302.27611067 -.00007431  00000+0 -56455-4 0  9990
2 60119  53.1591 149.0596 0000874  35.9453 324.1623 15.69743708 77358
STARLINK-11164 [DTC]    
1 60120U 24118H   25301.57086801 -.00002096  00000+0 -12465-4 0  9991
2 60120  53.1579 152.4799 0001074  91.8596 268.2545 15.69684805 77242
STARLINK-11119 [DTC]    
1 60121U 24118J   25301.61980218  .00002223  00000+0  23195-4 0  9994
2 60121  53.1590 152.0683 0000988  89.2930 270.8201 15.69711758 77257
STARLINK-11157 [DTC]    
1 60122U 24118K   25301.62470967  .00000533  00000+0  92553-5 0  9998
2 60122  53.1585 152.1002 0001024  99.5435 260.5699 15.69713516 77255
STARLINK-11162 [DTC]    
1 60123U 24118L   25301.61490033  .00001980  00000+0  21202-4 0  9993
2 60123  53.1592 152.0328 0001012  80.3287 279.7845 15.69704584 77254
STARLINK-11161 [DTC]    
1 60124U 24118M   25302.31046510 -.00001342  00000+0 -62172-5 0  9995
2 60124  53.1590 149.2851 0001271 105.1807 254.9351 15.69707811 77357
STARLINK-11160 [DTC]    
1 60125U 24118N   25301.31127406  .00000307  00000+0  73891-5 0  9997
2 60125  53.1571 153.7010 0000757  85.6440 274.4664 15.69707199 77204
STARLINK-31846          
1 60126U 24118P   25302.19038993 -.00000863  00000+0 -17026-4 0  9993
2 60126  53.1605 277.4931 0001293  91.9591 268.1558 15.30182785 75567
STARLINK-31840          
1 60127U 24118Q   25301.21699488  .00000385  00000+0  25127-4 0  9996
2 60127  53.1605 282.0841 0001468  93.3498 266.7671 15.30189380 75418
STARLINK-31813          
1 60128U 24118R   25302.32418365 -.00001387  00000+0 -34734-4 0  9992
2 60128  53.1603 276.9076 0001350  83.5699 276.5455 15.30184524 75585
STARLINK-31845          
1 60129U 24118S   25301.21119478 -.00000331  00000+0  96740-6 0  9997
2 60129  53.1610 279.9108 0001345  82.3943 277.7210 15.30182011 75442
